OBJECT_NAME,OBJECT_ID,EPOCH,MEAN_MOTION,ECCENTRICITY,INCLINATION,RA_OF_ASC_NODE,ARG_OF_PERICENTER,MEAN_ANOMALY,EPHEMERIS_TYPE,CLASSIFICATION_TYPE,NORAD_CAT_ID,ELEMENT_SET_NO,REV_AT_EPOCH,BSTAR,MEAN_MOTION_DOT,MEAN_MOTION_DDOT
ALOS-2,2014-029A,2026-07-12T00:40:24.335616,14.79469002,.0001549,97.9229,289.8370,98.6500,261.4887,0,U,39766,999,65525,.11465E-3,.805E-5,0
KAZEOSAT 2,2014-033A,2026-07-11T22:49:30.677664,14.85496180,.00071973,97.5405,31.2540,232.2694,127.7871,0,U,40010,999,65263,-.9076203E-5,-.128E-5,0
HODOYOSHI-4,2014-033B,2026-07-11T23:30:46.499904,14.88183026,.00224437,97.5459,16.6074,220.8916,139.0618,0,U,40011,999,65249,.7399574E-4,.632E-5,0
DEIMOS-2,2014-033D,2026-07-11T21:37:51.563136,14.93789314,.00009264,97.5807,66.5191,86.0615,274.0712,0,U,40013,999,64141,.13915711E-4,.93E-6,0
HODOYOSHI-3,2014-033F,2026-07-11T21:46:16.385376,14.85433515,.00312974,97.6441,354.9565,273.2549,86.5086,0,U,40015,999,65129,.67894303E-4,.537E-5,0
SPOT 7,2014-034A,2026-07-11T23:23:10.466880,14.60978875,.00015625,98.0623,254.8258,96.8863,263.2516,0,U,40053,999,64075,.3506059E-4,.127E-5,0
SKYSAT-B,2014-037D,2026-07-11T20:53:17.414880,14.88087332,.00053095,98.3853,153.2453,183.3680,176.7500,0,U,40072,999,64963,.79264116E-4,.667E-5,0
WORLDVIEW-3 (WV-3),2014-048A,2026-07-11T21:29:41.235360,14.85061085,.00010495,97.8558,267.3867,160.9080,199.2174,0,U,40115,999,64557,.52645304E-4,.396E-5,0
GAOFEN-2,2014-049A,2026-07-11T23:21:47.422656,14.80923421,.00080441,98.0103,257.1556,143.6500,216.5260,0,U,40118,999,64290,-.31291197E-4,-.295E-5,0
YAOGAN-21,2014-053A,2026-07-11T22:33:56.443104,15.26731521,.00082069,97.1471,232.1165,19.7294,340.4261,0,U,40143,999,65873,.16861493E-3,.4366E-4,0
YAOGAN-22,2014-063A,2026-07-11T12:31:42.678336,13.15531599,.00068057,100.7756,344.2025,132.8949,227.2735,0,U,40275,999,56301,.74489854E-4,-.19E-6,0
ASNARO,2014-070A,2026-07-11T23:37:01.735968,15.19798679,.00069268,97.3451,268.4314,96.9476,263.2547,0,U,40298,999,64777,.19651871E-3,.4143E-4,0
YAOGAN-24,2014-072A,2026-07-11T23:01:12.008064,14.76117425,.00143157,98.1512,330.5080,179.8486,180.2730,0,U,40310,999,62737,.11154758E-3,.718E-5,0
CBERS 4,2014-079A,2026-07-11T23:46:14.900736,14.35514914,.000093,98.3525,249.0421,52.2032,307.9238,0,U,40336,999,60751,-.19844544E-4,-.99E-6,0
YAOGAN-26,2014-088A,2026-07-11T23:00:15.017760,15.48350776,.00023587,97.0648,192.6037,359.2532,0.8716,0,U,40362,999,64153,.19960297E-3,.10472E-3,0
SMAP,2015-003A,2026-07-11T23:14:55.872672,14.63387520,.0001573,98.1282,199.7127,95.9057,264.2325,0,U,40376,999,61124,.51457853E-4,.219E-5,0
KOMPSAT-3A,2015-014A,2026-07-11T23:00:26.940960,15.55289172,.00565434,97.6886,186.1558,86.9800,273.7921,0,U,40536,999,62566,.3032114E-3,.21982E-3,0
SENTINEL-2A,2015-028A,2026-07-11T23:16:42.328704,14.30813289,.00012737,98.5681,267.4688,94.8735,265.2594,0,U,40697,999,57727,-.4893049E-5,-.56E-6,0
GAOFEN-8,2015-030A,2026-07-11T22:27:25.742304,15.46867734,.00099582,97.6898,27.8077,105.7752,254.4596,0,U,40701,999,61527,.31403956E-3,.15724E-3,0
CARBONITE 1 (CBNT-1),2015-032D,2026-07-11T22:25:37.058016,14.83665193,.00135309,97.6520,9.9673,208.2112,151.8371,0,U,40718,999,59301,.21264887E-3,.1707E-4,0
YAOGAN-27,2015-040A,2026-07-11T23:07:16.133088,13.16069598,.00084565,100.1163,178.2717,152.4506,207.7057,0,U,40878,999,52092,-.12130497E-2,-.503E-5,0
GAOFEN-9 01,2015-047A,2026-07-11T23:04:28.937856,14.82931360,.00286261,97.6270,227.5296,60.6270,299.7798,0,U,40894,999,58386,.74292187E-4,.556E-5,0
YAOGAN-28,2015-064A,2026-07-11T22:51:59.943168,15.27733538,.00120655,97.3099,330.7187,102.9942,257.2646,0,U,41026,999,59446,.15456598E-3,.4122E-4,0
YAOGAN-29,2015-069A,2026-07-12T00:08:29.584608,14.83103296,.00010157,98.0028,221.6765,16.7496,343.3750,0,U,41038,999,57430,-.41181839E-4,-.389E-5,0
KENT RIDGE 1,2015-077B,2026-07-11T21:58:50.952864,15.23273349,.00082764,14.9799,82.0545,228.7650,131.1959,0,U,41167,999,58487,.79609219E-4,.2707E-4,0
GAOFEN-4,2015-083A,2026-07-11T22:05:37.336128,1.00268546,.00044816,0.4175,83.8486,121.3118,161.7458,0,U,41194,999,3877,0,-.331E-5,0
JASON-3,2016-002A,2026-07-11T22:26:06.786528,12.87628459,.00082136,66.0417,73.8073,271.2191,88.7887,0,U,41240,999,49043,.9354439E-4,-.39E-6,0
SENTINEL-3A,2016-011A,2026-07-11T21:39:16.859808,14.26739165,.00013821,98.6238,259.9296,91.2166,268.9173,0,U,41335,999,54158,.33780608E-4,.38E-6,0
ZIYUAN 3-02 (ZY 3-02),2016-033A,2026-07-11T23:41:06.520992,15.21414898,.00137308,97.3832,268.2841,196.2804,163.7992,0,U,41556,999,56175,.14137218E-3,.3111E-4,0
CARTOSAT-2C,2016-040A,2026-07-11T22:58:32.446272,15.19249288,.00098283,97.4479,252.5925,55.1836,305.0322,0,U,41599,999,55747,.11693141E-3,.2398E-4,0
